TDRS 3                  
1 19548U 88091B   26199.23794822 -.00000309  00000+0  00000+0 0  9998
2 19548  12.5788 340.7966 0038122 355.1328 356.6773  1.00280117125698
FLTSATCOM 8 (USA 46)    
1 20253U 89077A   26198.76020071 -.00000378  00000+0  00000+0 0  9999
2 20253  12.4226 350.9707 0002492 104.6128 239.1742  1.00282204260860
SKYNET 4C               
1 20776U 90079A   26198.16074995 -.00000215  00000+0  00000+0 0  9991
2 20776  13.3285 349.6256 0002816 132.9021  49.3902  0.98579636   332
TDRS 5                  
1 21639U 91054B   26199.16136492  .00000073  00000+0  00000+0 0  9997
2 21639  14.0671 353.5485 0007320 257.7770 295.0555  1.00275157128024
TDRS 6                  
1 22314U 93003B   26199.23794822 -.00000307  00000+0  00000+0 0  9990
2 22314  14.1833 356.8235 0008581 185.0919 153.8471  1.00278641122712
UFO 2 (USA 95)          
1 22787U 93056A   26199.08517093  .00000113  00000+0  00000+0 0  9992
2 22787  11.9056   3.3790 0002270   5.9364 345.8456  1.00271815118853
UFO 4 (USA 108)         
1 23467U 95003A   26199.22878832 -.00000033  00000+0  00000+0 0  9991
2 23467   9.6801  12.9977 0003040  94.8024  82.9799  1.00268802115263
TDRS 7                  
1 23613U 95035B   26198.92711409 -.00000252  00000+0  00000+0 0  9994
2 23613  13.3644 347.9739 0011338  87.1832 283.6126  1.00273143113560
USA 115 (MILSTAR-1 2)   
1 23712U 95060A   26198.96290758 -.00000214  00000+0  00000+0 0  9993
2 23712  14.0838   3.5158 0006136 122.5324  66.3542  1.00272424 33192
INMARSAT 3-F1           
1 23839U 96020A   26199.22128090  .00000057  00000+0  00000+0 0  9993
2 23839  10.6634  46.3424 0004588  93.9544 107.4567  0.99981162110567
INMARSAT 3-F2           
1 24307U 96053A   26199.00427801 -.00000365  00000+0  00000+0 0  9991
2 24307   9.9239  53.6167 0006292  58.1316 304.5149  0.99990060109234
INMARSAT 3-F3           
1 24674U 96070A   26199.26807441  .00000005  00000+0  00000+0 0  9997
2 24674  10.3831  49.3487 0003621  83.1974 270.9553  0.99996354108217
USA 134                 
1 25019U 97065A   26198.03187133 -.00000076  00000+0  00000+0 0  9998
2 25019  12.8192  21.4959 0002603 336.8164 195.6150  1.00274569 33258
INMARSAT 3-F5           
1 25153U 98006B   26198.97961450 -.00000303  00000+0  00000+0 0  9991
2 25153   9.7605  52.9489 0004444  64.2507 117.2921  1.00272277104200
ABS-6                   
1 25924U 99053A   26199.32577862 -.00000127  00000+0  00000+0 0  9994
2 25924   0.0448 260.5996 0003098 200.7608 111.0443  1.00272094 98152
UFO 10 (USA 146)        
1 25967U 99063A   26199.22683770 -.00000200  00000+0  00000+0 0  9999
2 25967   9.8469  27.0424 0001738 126.8830 200.8299  1.00272235 97652
ASIASTAR                
1 26107U 00016A   26199.00159133 -.00000346  00000+0  00000+0 0  9994
2 26107   9.1997  57.8210 0003886  69.4740 274.0889  1.00270108 96227
USA 149 (DSP 20)        
1 26356U 00024A   26199.16197159  .00000083  00000+0  00000+0 0  9993
2 26356  13.1939  11.6285 0000463 266.0485 271.8373  1.00260277 33223
TDRS 8                  
1 26388U 00034A   26198.96088253 -.00000209  00000+0  00000+0 0  9991
2 26388  12.7306  31.0551 0003793  39.3032 296.1805  1.00271832 95486
NSS-11                  
1 26554U 00059A   26199.22948166  .00000016  00000+0  00000+0 0  9996
2 26554   2.2050  81.0216 0003002  44.3545  69.2627  1.00272013 41600
USA 153                 
1 26575U 00065A   26198.86489622 -.00000337  00000+0  00000+0 0  9999
2 26575  11.6760  35.1608 0002099  57.5902 288.7653  1.00272284 33235
AMC-6                   
1 26580U 00067A   26199.02683615  .00000080  00000+0  00000+0 0  9998
2 26580   0.2291  83.7843 0004005  46.1670  40.4889  1.00272212 94208
USA 157 (MILSTAR-2 2)   
1 26715U 01009A   26199.16489307  .00000097  00000+0  00000+0 0  9990
2 26715  11.5765  19.5687 0040450 179.2324   6.4792  1.00276033 33258
INTELSAT 902 (IS-902)   
1 26900U 01039A   26199.23794822 -.00000294  00000+0  00000+0 0  9998
2 26900   6.1922  71.4001 0004179  45.4278 214.7794  1.00271526 91001
USA 164 (MILSTAR-2 3)   
1 27168U 02001A   26199.19836818  .00000085  00000+0  00000+0 0  9999
2 27168  11.2161  21.7147 0099302   9.0621 355.6305  1.00267853 33275
INTELSAT 904 (IS-904)   
1 27380U 02007A   26199.11294836 -.00000237  00000+0  00000+0 0  9991
2 27380   6.9954  68.8101 0005402  27.4130 208.8747  1.00270388 52076
DIRECTV 5 (TEMPO 1)     
1 27426U 02023A   26199.17286642 -.00000067  00000+0  00000+0 0  9993
2 27426   4.9551  74.9230 0003220  49.3707 123.8014  1.00271853 88438
INTELSAT 905 (IS-905)   
1 27438U 02027A   26199.22683583  .00000083  00000+0  00000+0 0  9998
2 27438   6.8295  69.4223 0003542  48.8529 122.2063  1.00272507 51671
GALAXY 3C (G-3C)        
1 27445U 02030A   26198.81942775 -.00000163  00000+0  00000+0 0  9995
2 27445   3.8113  77.5805 0001653  31.4456  26.7582  1.00270872 46805
INTELSAT 906 (IS-906)   
1 27513U 02041A   26199.20729490  .00000002  00000+0  00000+0 0  9995
2 27513   5.8782  72.5358 0003700  28.8661 333.4084  1.00273761 87345
NIMIQ 2                 
1 27632U 02062A   26199.17295309 -.00000081  00000+0  00000+0 0  9991
2 27632   9.5157  56.5683 0005388  56.1778 136.2796  1.00271792 44494
